[{"OBJECT_NAME":"CAPELLA-15 (ACADIA-5)","OBJECT_ID":"2024-149CE","EPOCH":"2026-04-26T11:53:59.252352","MEAN_MOTION":14.92435018,"ECCENTRICITY":0.0003066,"INCLINATION":97.6781,"RA_OF_ASC_NODE":190.6834,"ARG_OF_PERICENTER":228.7254,"MEAN_ANOMALY":131.3701,"EPHEMERIS_TYPE":0,"CLASSIFICATION_TYPE":"U","NORAD_CAT_ID":60544,"ELEMENT_SET_NO":999,"REV_AT_EPOCH":9214,"BSTAR":0.00040394,"MEAN_MOTION_DOT":4.085e-5,"MEAN_MOTION_DDOT":0},{"OBJECT_NAME":"HAWK-10B","OBJECT_ID":"2024-149CF","EPOCH":"2026-04-26T11:32:43.196064","MEAN_MOTION":14.96349465,"ECCENTRICITY":0.0003867,"INCLINATION":97.6821,"RA_OF_ASC_NODE":192.691,"ARG_OF_PERICENTER":260.6092,"MEAN_ANOMALY":99.4693,"EPHEMERIS_TYPE":0,"CLASSIFICATION_TYPE":"U","NORAD_CAT_ID":60545,"ELEMENT_SET_NO":999,"REV_AT_EPOCH":9225,"BSTAR":0.00017374,"MEAN_MOTION_DOT":1.909e-5,"MEAN_MOTION_DDOT":0},{"OBJECT_NAME":"ICEYE-X39","OBJECT_ID":"2024-149CG","EPOCH":"2026-04-25T18:26:51.240768","MEAN_MOTION":14.99580635,"ECCENTRICITY":0.0001061,"INCLINATION":97.6822,"RA_OF_ASC_NODE":193.4964,"ARG_OF_PERICENTER":199.3712,"MEAN_ANOMALY":160.7471,"EPHEMERIS_TYPE":0,"CLASSIFICATION_TYPE":"U","NORAD_CAT_ID":60546,"ELEMENT_SET_NO":999,"REV_AT_EPOCH":9226,"BSTAR":0.00036654657,"MEAN_MOTION_DOT":4.45e-5,"MEAN_MOTION_DDOT":0},{"OBJECT_NAME":"UMBRA-10","OBJECT_ID":"2024-149CH","EPOCH":"2026-04-26T05:29:39.940800","MEAN_MOTION":15.1644143,"ECCENTRICITY":0.0002427,"INCLINATION":97.6967,"RA_OF_ASC_NODE":202.6394,"ARG_OF_PERICENTER":133.3316,"MEAN_ANOMALY":226.8119,"EPHEMERIS_TYPE":0,"CLASSIFICATION_TYPE":"U","NORAD_CAT_ID":60547,"ELEMENT_SET_NO":999,"REV_AT_EPOCH":9285,"BSTAR":0.0010008,"MEAN_MOTION_DOT":0.00019432,"MEAN_MOTION_DDOT":0},{"OBJECT_NAME":"ICEYE-X33","OBJECT_ID":"2024-149CJ","EPOCH":"2026-04-26T12:01:57.165312","MEAN_MOTION":15.00914632,"ECCENTRICITY":0.0002166,"INCLINATION":97.7118,"RA_OF_ASC_NODE":195.9769,"ARG_OF_PERICENTER":12.5753,"MEAN_ANOMALY":347.5524,"EPHEMERIS_TYPE":0,"CLASSIFICATION_TYPE":"U","NORAD_CAT_ID":60548,"ELEMENT_SET_NO":999,"REV_AT_EPOCH":9245,"BSTAR":0.00044504,"MEAN_MOTION_DOT":5.61e-5,"MEAN_MOTION_DDOT":0},{"OBJECT_NAME":"ICEYE-X40","OBJECT_ID":"2024-149CK","EPOCH":"2026-04-26T11:06:29.115072","MEAN_MOTION":14.9776443,"ECCENTRICITY":0.0003666,"INCLINATION":97.6813,"RA_OF_ASC_NODE":193.7947,"ARG_OF_PERICENTER":245.1424,"MEAN_ANOMALY":114.9417,"EPHEMERIS_TYPE":0,"CLASSIFICATION_TYPE":"U","NORAD_CAT_ID":60549,"ELEMENT_SET_NO":999,"REV_AT_EPOCH":9233,"BSTAR":0.00013587,"MEAN_MOTION_DOT":1.537e-5,"MEAN_MOTION_DDOT":0},{"OBJECT_NAME":"SATELIOT_1","OBJECT_ID":"2024-149CL","EPOCH":"2026-04-26T10:58:49.056672","MEAN_MOTION":14.97836739,"ECCENTRICITY":0.0005406,"INCLINATION":97.6757,"RA_OF_ASC_NODE":193.2228,"ARG_OF_PERICENTER":244.3752,"MEAN_ANOMALY":115.6912,"EPHEMERIS_TYPE":0,"CLASSIFICATION_TYPE":"U","NORAD_CAT_ID":60550,"ELEMENT_SET_NO":999,"REV_AT_EPOCH":9232,"BSTAR":0.00013928,"MEAN_MOTION_DOT":1.58e-5,"MEAN_MOTION_DDOT":0},{"OBJECT_NAME":"BRO-14","OBJECT_ID":"2024-149CM","EPOCH":"2026-04-26T11:54:48.376800","MEAN_MOTION":14.96081174,"ECCENTRICITY":0.0005006,"INCLINATION":97.6886,"RA_OF_ASC_NODE":193.203,"ARG_OF_PERICENTER":269.5115,"MEAN_ANOMALY":90.5533,"EPHEMERIS_TYPE":0,"CLASSIFICATION_TYPE":"U","NORAD_CAT_ID":60551,"ELEMENT_SET_NO":999,"REV_AT_EPOCH":9226,"BSTAR":0.00021182,"MEAN_MOTION_DOT":2.324e-5,"MEAN_MOTION_DDOT":0},{"OBJECT_NAME":"SATELIOT_3","OBJECT_ID":"2024-149CN","EPOCH":"2026-04-25T18:21:30.650112","MEAN_MOTION":14.97836654,"ECCENTRICITY":0.00031739,"INCLINATION":97.6836,"RA_OF_ASC_NODE":193.2834,"ARG_OF_PERICENTER":247.671,"MEAN_ANOMALY":112.4177,"EPHEMERIS_TYPE":0,"CLASSIFICATION_TYPE":"U","NORAD_CAT_ID":60552,"ELEMENT_SET_NO":999,"REV_AT_EPOCH":9223,"BSTAR":0.00022462868,"MEAN_MOTION_DOT":2.583e-5,"MEAN_MOTION_DDOT":0},{"OBJECT_NAME":"BRO-15","OBJECT_ID":"2024-149CP","EPOCH":"2026-04-26T11:27:34.188192","MEAN_MOTION":14.96029006,"ECCENTRICITY":0.0006642,"INCLINATION":97.681,"RA_OF_ASC_NODE":192.8352,"ARG_OF_PERICENTER":257.0894,"MEAN_ANOMALY":102.9585,"EPHEMERIS_TYPE":0,"CLASSIFICATION_TYPE":"U","NORAD_CAT_ID":60553,"ELEMENT_SET_NO":999,"REV_AT_EPOCH":9227,"BSTAR":0.00010246,"MEAN_MOTION_DOT":1.093e-5,"MEAN_MOTION_DDOT":0},{"OBJECT_NAME":"UM5-RIBAT","OBJECT_ID":"2024-149CQ","EPOCH":"2026-04-26T11:19:14.481696","MEAN_MOTION":15.00780324,"ECCENTRICITY":0.0001865,"INCLINATION":97.6673,"RA_OF_ASC_NODE":194.9685,"ARG_OF_PERICENTER":139.2643,"MEAN_ANOMALY":220.872,"EPHEMERIS_TYPE":0,"CLASSIFICATION_TYPE":"U","NORAD_CAT_ID":60554,"ELEMENT_SET_NO":999,"REV_AT_EPOCH":9243,"BSTAR":0.00027857,"MEAN_MOTION_DOT":3.476e-5,"MEAN_MOTION_DDOT":0},{"OBJECT_NAME":"UM5-EOSAT","OBJECT_ID":"2024-149CR","EPOCH":"2026-04-25T18:51:36.487872","MEAN_MOTION":15.01182526,"ECCENTRICITY":0.00049027,"INCLINATION":97.6678,"RA_OF_ASC_NODE":195.1836,"ARG_OF_PERICENTER":283.7393,"MEAN_ANOMALY":76.3285,"EPHEMERIS_TYPE":0,"CLASSIFICATION_TYPE":"U","NORAD_CAT_ID":60555,"ELEMENT_SET_NO":999,"REV_AT_EPOCH":9235,"BSTAR":0.0002084729,"MEAN_MOTION_DOT":2.614e-5,"MEAN_MOTION_DDOT":0},{"OBJECT_NAME":"LASARSAT","OBJECT_ID":"2024-247Q","EPOCH":"2026-04-26T12:01:18.141888","MEAN_MOTION":15.43227216,"ECCENTRICITY":0.0005523,"INCLINATION":44.9748,"RA_OF_ASC_NODE":191.9413,"ARG_OF_PERICENTER":356.8551,"MEAN_ANOMALY":3.2302,"EPHEMERIS_TYPE":0,"CLASSIFICATION_TYPE":"U","NORAD_CAT_ID":62391,"ELEMENT_SET_NO":999,"REV_AT_EPOCH":7532,"BSTAR":0.00079791,"MEAN_MOTION_DOT":0.00036052,"MEAN_MOTION_DDOT":0},{"OBJECT_NAME":"CROCUBE","OBJECT_ID":"2024-247T","EPOCH":"2026-04-26T11:45:27.654624","MEAN_MOTION":15.44701641,"ECCENTRICITY":0.0005198,"INCLINATION":44.9717,"RA_OF_ASC_NODE":190.078,"ARG_OF_PERICENTER":355.2969,"MEAN_ANOMALY":4.787,"EPHEMERIS_TYPE":0,"CLASSIFICATION_TYPE":"U","NORAD_CAT_ID":62394,"ELEMENT_SET_NO":999,"REV_AT_EPOCH":7534,"BSTAR":0.00082582,"MEAN_MOTION_DOT":0.00039267,"MEAN_MOTION_DDOT":0},{"OBJECT_NAME":"TEVEL2-4","OBJECT_ID":"2025-052D","EPOCH":"2026-04-26T10:37:40.346976","MEAN_MOTION":15.32785632,"ECCENTRICITY":9.08e-5,"INCLINATION":97.3963,"RA_OF_ASC_NODE":12.8058,"ARG_OF_PERICENTER":354.1485,"MEAN_ANOMALY":5.9747,"EPHEMERIS_TYPE":0,"CLASSIFICATION_TYPE":"U","NORAD_CAT_ID":63213,"ELEMENT_SET_NO":999,"REV_AT_EPOCH":6218,"BSTAR":0.00071729,"MEAN_MOTION_DOT":0.00022675,"MEAN_MOTION_DDOT":0},{"OBJECT_NAME":"TEVEL2-5","OBJECT_ID":"2025-052E","EPOCH":"2026-04-25T16:11:15.422784","MEAN_MOTION":15.32603298,"ECCENTRICITY":0.00010666,"INCLINATION":97.3959,"RA_OF_ASC_NODE":11.9997,"ARG_OF_PERICENTER":354.8398,"MEAN_ANOMALY":5.2832,"EPHEMERIS_TYPE":0,"CLASSIFICATION_TYPE":"U","NORAD_CAT_ID":63214,"ELEMENT_SET_NO":999,"REV_AT_EPOCH":6206,"BSTAR":0.00057588562,"MEAN_MOTION_DOT":0.00018075,"MEAN_MOTION_DDOT":0},{"OBJECT_NAME":"TEVEL2-6","OBJECT_ID":"2025-052F","EPOCH":"2026-04-25T16:27:10.359648","MEAN_MOTION":15.32565052,"ECCENTRICITY":0.00011108,"INCLINATION":97.3965,"RA_OF_ASC_NODE":11.9959,"ARG_OF_PERICENTER":353.8719,"MEAN_ANOMALY":6.2509,"EPHEMERIS_TYPE":0,"CLASSIFICATION_TYPE":"U","NORAD_CAT_ID":63215,"ELEMENT_SET_NO":999,"REV_AT_EPOCH":6206,"BSTAR":0.00056503513,"MEAN_MOTION_DOT":0.00017711,"MEAN_MOTION_DDOT":0}]
