CAPELLA-15 (ACADIA-5)   
1 60544U 24149CE  26116.49582468  .00004085  00000+0  40394-3 0  9990
2 60544  97.6781 190.6834 0003066 228.7254 131.3701 14.92435018 92144
HAWK-10B                
1 60545U 24149CF  26116.48105551  .00001909  00000+0  17374-3 0  9998
2 60545  97.6821 192.6910 0003867 260.6092  99.4693 14.96349465 92251
ICEYE-X39               
1 60546U 24149CG  26115.76864862  .00004450  00000+0  36655-3 0  9993
2 60546  97.6822 193.4964 0001061 199.3712 160.7471 14.99580635 92268
UMBRA-10                
1 60547U 24149CH  26116.22893450  .00019432  00000+0  10008-2 0  9990
2 60547  97.6967 202.6394 0002427 133.3316 226.8119 15.16441430 92851
ICEYE-X33               
1 60548U 24149CJ  26116.50135608  .00005610  00000+0  44504-3 0  9998
2 60548  97.7118 195.9769 0002166  12.5753 347.5524 15.00914632 92453
ICEYE-X40               
1 60549U 24149CK  26116.46283698  .00001537  00000+0  13587-3 0  9998
2 60549  97.6813 193.7947 0003666 245.1424 114.9417 14.97764430 92332
SATELIOT_1              
1 60550U 24149CL  26116.45751223  .00001580  00000+0  13928-3 0  9990
2 60550  97.6757 193.2228 0005406 244.3752 115.6912 14.97836739 92326
BRO-14                  
1 60551U 24149CM  26116.49639325  .00002324  00000+0  21182-3 0  9991
2 60551  97.6886 193.2030 0005006 269.5115  90.5533 14.96081174 92266
SATELIOT_3              
1 60552U 24149CN  26115.76493808  .00002583  00000+0  22463-3 0  9995
2 60552  97.6836 193.2834 0003173 247.6710 112.4177 14.97836654 92232
BRO-15                  
1 60553U 24149CP  26116.47747903  .00001093  00000+0  10246-3 0  9994
2 60553  97.6810 192.8352 0006642 257.0894 102.9585 14.96029006 92272
UM5-RIBAT               
1 60554U 24149CQ  26116.47169539  .00003476  00000+0  27857-3 0  9991
2 60554  97.6673 194.9685 0001865 139.2643 220.8720 15.00780324 92439
UM5-EOSAT               
1 60555U 24149CR  26115.78583898  .00002614  00000+0  20847-3 0  9998
2 60555  97.6678 195.1836 0004902 283.7393  76.3285 15.01182526 92350
LASARSAT                
1 62391U 24247Q   26116.50090442  .00036052  00000+0  79791-3 0  9991
2 62391  44.9748 191.9413 0005523 356.8551   3.2302 15.43227216 75325
CROCUBE                 
1 62394U 24247T   26116.48990341  .00039267  00000+0  82582-3 0  9991
2 62394  44.9717 190.0780 0005198 355.2969   4.7870 15.44701641 75343
TEVEL2-4                
1 63213U 25052D   26116.44282809  .00022675  00000+0  71729-3 0  9992
2 63213  97.3963  12.8058 0000908 354.1485   5.9747 15.32785632 62186
TEVEL2-5                
1 63214U 25052E   26115.67448406  .00018075  00000+0  57589-3 0  9991
2 63214  97.3959  11.9997 0001066 354.8398   5.2832 15.32603298 62062
TEVEL2-6                
1 63215U 25052F   26115.68553657  .00017711  00000+0  56504-3 0  9990
2 63215  97.3965  11.9959 0001110 353.8719   6.2509 15.32565052 62061
